[{"OBJECT_NAME":"STARLINK-30528","OBJECT_ID":"2023-151D","EPOCH":"2026-03-09T01:41:03.497568","MEAN_MOTION":15.27575133,"ECCENTRICITY":0.00013391,"INCLINATION":43.0001,"RA_OF_ASC_NODE":339.3327,"ARG_OF_PERICENTER":277.3865,"MEAN_ANOMALY":82.6834,"EPHEMERIS_TYPE":0,"CLASSIFICATION_TYPE":"U","NORAD_CAT_ID":57967,"ELEMENT_SET_NO":999,"REV_AT_EPOCH":13567,"BSTAR":-5.9647529e-5,"MEAN_MOTION_DOT":-1.903e-5,"MEAN_MOTION_DDOT":0},{"OBJECT_NAME":"HYPERFIELD-1A","OBJECT_ID":"2024-149CY","EPOCH":"2026-03-09T18:21:25.814304","MEAN_MOTION":15.29681349,"ECCENTRICITY":0.00038648,"INCLINATION":97.3842,"RA_OF_ASC_NODE":149.5066,"ARG_OF_PERICENTER":313.7844,"MEAN_ANOMALY":46.3076,"EPHEMERIS_TYPE":0,"CLASSIFICATION_TYPE":"U","NORAD_CAT_ID":60562,"ELEMENT_SET_NO":999,"REV_AT_EPOCH":8683,"BSTAR":0.00030052114,"MEAN_MOTION_DOT":8.569e-5,"MEAN_MOTION_DDOT":0}]
